{
  "type": "FeatureCollection",
  "features": [
    {
      "type": "Feature",
      "properties": {
        "name": "Catchment Watershed Basin",
        "area_m2": 115573.7,
        "area_ha": 11.56,
        "runoff_volume_m3": 84745.57,
        "suitability_score": 0.69
      },
      "geometry": {
        "type": "Polygon",
        "coordinates": [
          [
            [81.28108569553925, 21.260426593884105],
            [81.28170644190058, 21.26047349172291],
            [81.28172340989175, 21.26139865640123],
            [81.2829692044177, 21.261428060675506],
            [81.28299860869198, 21.262368379008638],
            [81.2842735775874, 21.262368379008638],
            [81.28433542419657, 21.261891244704078],
            [81.28554877638761, 21.261883517704934],
            [81.28554877638761, 21.26091402500231],
            [81.28365879209436, 21.260877349378333],
            [81.28368053611639, 21.26044590178498],
            [81.2842735775874, 21.260428933793815],
            [81.2842735775874, 21.258974579787488],
            [81.28306022539634, 21.258966852788344],
            [81.28299837878717, 21.258489718483784],
            [81.28172340989175, 21.258489718483784],
            [81.28168673426777, 21.25895176588043],
            [81.28108581049165, 21.258974579787488],
            [81.28108569553925, 21.260426593884105]
          ]
        ]
      }
    },
    {
      "type": "Feature",
      "properties": {
        "name": "Recommended Pond Excavation Location",
        "elevation_m": 276.0,
        "slope_deg": 0.0,
        "depth_m": 3.0,
        "surface_area_m2": 28248.52
      },
      "geometry": {
        "type": "Point",
        "coordinates": [81.2814045, 21.2611563]
      }
    }
  ]
}